METEOR-M2 2             
1 44387U 19038A   23087.21427530  .00000129  00000+0  75766-4 0  9997
2 44387  98.7655  51.3207 0001701 131.6285 228.5045 14.23765903193785
